OBJECT_NAME,OBJECT_ID,EPOCH,MEAN_MOTION,ECCENTRICITY,INCLINATION,RA_OF_ASC_NODE,ARG_OF_PERICENTER,MEAN_ANOMALY,EPHEMERIS_TYPE,CLASSIFICATION_TYPE,NORAD_CAT_ID,ELEMENT_SET_NO,REV_AT_EPOCH,BSTAR,MEAN_MOTION_DOT,MEAN_MOTION_DDOT
ONEWEB-0236,2021-045AG,2026-07-16T03:41:18.522240,13.15548377,.00021391,87.8984,253.4342,95.5426,264.5948,0,U,48797,999,24806,.58153171E-3,.232E-5,0
ONEWEB-0248,2021-045AH,2026-07-16T03:59:33.037440,13.15549225,.00024647,87.8994,253.4183,106.0294,254.1108,0,U,48798,999,24822,.12350988E-4,.17E-6,0
ONEWEB-0225,2021-045AJ,2026-07-16T04:31:30.378720,13.15547699,.00022816,87.8988,253.4210,111.8550,248.2823,0,U,48799,999,24823,-.40835533E-3,-.141E-5,0
ONEWEB-0215,2021-045AK,2026-07-16T03:48:08.352000,13.15549560,.00024297,87.8996,253.4109,113.3323,246.8063,0,U,48800,999,24810,.45033921E-3,.182E-5,0
ONEWEB-0216,2021-045AL,2026-07-16T04:01:50.524896,13.15548290,.00020171,87.8992,253.4226,97.2957,262.8403,0,U,48801,999,24811,.66207025E-4,.38E-6,0
ONEWEB-0239,2021-045AM,2026-07-16T04:08:41.363808,13.15548252,.00027384,87.8981,253.4256,110.2736,249.8689,0,U,48802,999,24815,-.77486919E-4,-.16E-6,0
ONEWEB-0249,2021-060A,2026-07-16T02:00:32.727168,13.16592713,.00021704,87.9080,223.0380,95.1533,264.9846,0,U,48967,999,24341,.17553087E-3,.8E-6,0
ONEWEB-0250,2021-060B,2026-07-16T03:16:07.929696,13.25835235,.00030627,87.9080,220.6896,85.1535,274.9950,0,U,48968,999,24405,-.8666069E-4,-.25E-6,0
ONEWEB-0252,2021-060D,2026-07-16T02:45:01.728576,13.16595029,.00018658,87.9078,223.0243,96.3537,263.7806,0,U,48970,999,24346,-.53171822E-4,-.7E-7,0
ONEWEB-0253,2021-060E,2026-07-16T02:29:04.280928,13.16595195,.00022137,87.9079,223.0319,93.5781,266.5603,0,U,48971,999,24339,-.13535652E-3,-.39E-6,0
ONEWEB-0254,2021-060F,2026-07-16T02:42:45.647712,13.16594133,.00023338,87.9080,223.0281,98.7780,261.3616,0,U,48972,999,24339,-.17547571E-4,.6E-7,0
ONEWEB-0255,2021-060G,2026-07-16T07:16:20.954784,13.16594455,.00021698,87.9079,222.9963,97.9017,262.2360,0,U,48973,999,24349,.28446857E-4,.24E-6,0
ONEWEB-0256,2021-060H,2026-07-16T02:25:39.555264,13.16582443,.00018225,87.9079,223.0392,92.9547,267.1792,0,U,48974,999,24343,-.28512442E-2,-.1077E-4,0
ONEWEB-0257,2021-060J,2026-07-16T03:12:23.899680,13.16593794,.00020502,87.9076,223.0215,98.3909,261.7455,0,U,48975,999,24339,.20743386E-3,.92E-6,0
ONEWEB-0258,2021-060K,2026-07-16T03:14:40.712352,13.16594151,.00021705,87.9080,223.0337,96.5605,263.5773,0,U,48976,999,24340,.6786442E-4,.39E-6,0
ONEWEB-0259,2021-060L,2026-07-16T03:05:33.539424,13.16593841,.00022842,87.9078,223.0332,96.2249,263.9142,0,U,48977,999,24343,.99863768E-4,.51E-6,0
ONEWEB-0260,2021-060M,2026-07-16T02:52:59.401344,13.16595199,.00016803,87.9073,223.0354,94.2825,265.8498,0,U,48978,999,24341,-.10111636E-3,-.26E-6,0
ONEWEB-0261,2021-060N,2026-07-16T07:38:00.875616,13.16593898,.00020909,87.9079,222.9967,102.3137,257.8228,0,U,48979,999,24349,-.61954461E-4,-.11E-6,0
ONEWEB-0262,2021-060P,2026-07-16T01:41:12.094368,13.16594136,.0002348,87.9080,223.0326,95.6104,264.5295,0,U,48980,999,24342,.26147184E-3,.113E-5,0
ONEWEB-0263,2021-060Q,2026-07-16T02:26:47.818176,13.16593623,.00021975,87.9080,223.0382,101.9001,258.2377,0,U,48981,999,24339,-.12317037E-3,-.34E-6,0
ONEWEB-0264,2021-060R,2026-07-16T03:20:21.544800,13.16592190,.00019379,87.9072,223.0328,98.0180,262.1171,0,U,48982,999,24340,.67466366E-4,.39E-6,0
ONEWEB-0266,2021-060T,2026-07-16T03:51:08.248896,13.16595667,.00021175,87.9082,223.0199,91.2419,268.8954,0,U,48984,999,24339,-.95128155E-4,-.24E-6,0
ONEWEB-0267,2021-060U,2026-07-16T02:17:40.779168,13.16594118,.00020445,87.9080,223.0296,98.8368,261.2995,0,U,48985,999,24339,-.7032022E-4,-.14E-6,0
ONEWEB-0268,2021-060V,2026-07-16T01:32:04.373664,13.16598631,.00019025,87.9078,223.0453,93.9446,266.1902,0,U,48986,999,24365,.19271578E-2,.75E-5,0
ONEWEB-0269,2021-060W,2026-07-16T02:54:09.429408,13.16593986,.00019667,87.9073,223.0346,89.4087,270.7269,0,U,48987,999,24343,.23322821E-4,.22E-6,0
ONEWEB-0270,2021-060X,2026-07-16T01:29:46.188096,13.16598768,.00022946,87.9084,223.0478,100.2105,259.9284,0,U,48988,999,24346,-.32148648E-2,-.1216E-4,0
ONEWEB-0271,2021-060Y,2026-07-16T03:01:00.035904,13.16593851,.00021362,87.9077,223.0245,100.4054,259.7318,0,U,48989,999,24347,-.14431257E-3,-.42E-6,0
ONEWEB-0272,2021-060Z,2026-07-16T03:32:54.494880,13.16595318,.00018242,87.9073,223.0306,98.8586,261.2751,0,U,48990,999,24342,.72211957E-4,.4E-6,0
ONEWEB-0273,2021-060AA,2026-07-16T07:43:42.177216,13.16591493,.00021768,87.9077,222.9971,96.8601,263.2778,0,U,48991,999,24342,.13349973E-2,.523E-5,0
ONEWEB-0274,2021-060AB,2026-07-16T02:51:51.401952,13.16595451,.00017559,87.9068,223.0369,95.1259,265.0072,0,U,48992,999,24343,.1479401E-3,.69E-6,0
